[{"OBJECT_NAME":"STARLINK-2225","OBJECT_ID":"2021-041X","EPOCH":"2026-03-10T00:00:02.999808","MEAN_MOTION":15.27069763,"ECCENTRICITY":0.00014642,"INCLINATION":53.1456,"RA_OF_ASC_NODE":99.5289,"ARG_OF_PERICENTER":89.1304,"MEAN_ANOMALY":151.4925,"EPHEMERIS_TYPE":0,"CLASSIFICATION_TYPE":"U","NORAD_CAT_ID":48574,"ELEMENT_SET_NO":999,"REV_AT_EPOCH":574,"BSTAR":0.059549049,"MEAN_MOTION_DOT":0.01753094,"MEAN_MOTION_DDOT":0},{"OBJECT_NAME":"OBJECT A","OBJECT_ID":"2024-153A","EPOCH":"2026-03-09T23:23:00.048768","MEAN_MOTION":15.38255179,"ECCENTRICITY":0.0008915,"INCLINATION":97.6577,"RA_OF_ASC_NODE":205.6534,"ARG_OF_PERICENTER":134.2023,"MEAN_ANOMALY":225.9955,"EPHEMERIS_TYPE":0,"CLASSIFICATION_TYPE":"U","NORAD_CAT_ID":60745,"ELEMENT_SET_NO":999,"REV_AT_EPOCH":8481,"BSTAR":0.0015987214,"MEAN_MOTION_DOT":0.00060651,"MEAN_MOTION_DDOT":0}]
